[
    {
        "Altitude(m)": 564598.566094523,
        "Argument of Periapsis(deg)": 0.019868973332140504,
        "Eccentricity": 0.0,
        "Inclination(deg)": 53.0,
        "Latitude(deg)": -35.31632609011244,
        "Longitude(deg)": 120.54984518388551,
        "Mean Anomaly(deg)": -46.0888213972672,
        "RAAN(deg)": 254.9704301055841,
        "Satellite Name": "Starlink Shell 1 1139",
        "Satellite Number": 1139,
        "Semi-Major Axis(m)": 6931778.249405717,
        "Time(s)": 570
    },
    {
        "Altitude(m)": 564425.8909855894,
        "Argument of Periapsis(deg)": 0.02021755181165174,
        "Eccentricity": 0.0,
        "Inclination(deg)": 53.0,
        "Latitude(deg)": -34.890315162703025,
        "Longitude(deg)": 121.0687498564169,
        "Mean Anomaly(deg)": -45.46199019371054,
        "RAAN(deg)": 254.9699113355066,
        "Satellite Name": "Starlink Shell 1 1139",
        "Satellite Number": 1139,
        "Semi-Major Axis(m)": 6931778.249405717,
        "Time(s)": 580
    },
    {
        "Altitude(m)": 564252.645001856,
        "Argument of Periapsis(deg)": 0.020566130291162974,
        "Eccentricity": 0.0,
        "Inclination(deg)": 53.0,
        "Latitude(deg)": -34.46170768505717,
        "Longitude(deg)": 121.58190432142267,
        "Mean Anomaly(deg)": -44.83515899015382,
        "RAAN(deg)": 254.96939256542913,
        "Satellite Name": "Starlink Shell 1 1139",
        "Satellite Number": 1139,
        "Semi-Major Axis(m)": 6931778.249405717,
        "Time(s)": 590
    },
    {
        "Altitude(m)": 564078.8944018425,
        "Argument of Periapsis(deg)": 0.020914708770674213,
        "Eccentricity": 0.0,
        "Inclination(deg)": 53.0,
        "Latitude(deg)": -34.03056916342175,
        "Longitude(deg)": 122.08942436485187,
        "Mean Anomaly(deg)": -44.208327786597145,
        "RAAN(deg)": 254.96887379535164,
        "Satellite Name": "Starlink Shell 1 1139",
        "Satellite Number": 1139,
        "Semi-Major Axis(m)": 6931778.249405717,
        "Time(s)": 600
    },
    {
        "Altitude(m)": 563904.7055239017,
        "Argument of Periapsis(deg)": 0.021263287250185448,
        "Eccentricity": 0.0,
        "Inclination(deg)": 53.0,
        "Latitude(deg)": -33.59696363027958,
        "Longitude(deg)": 122.59142491807282,
        "Mean Anomaly(deg)": -43.581496583040455,
        "RAAN(deg)": 254.96835502527418,
        "Satellite Name": "Starlink Shell 1 1139",
        "Satellite Number": 1139,
        "Semi-Major Axis(m)": 6931778.249405717,
        "Time(s)": 610
    },
    {
        "Altitude(m)": 563730.1447565658,
        "Argument of Periapsis(deg)": 0.021611865729696686,
        "Eccentricity": 0.0,
        "Inclination(deg)": 53.0,
        "Latitude(deg)": -33.16095367629859,
        "Longitude(deg)": 123.0880204915546,
        "Mean Anomaly(deg)": -42.95466537948363,
        "RAAN(deg)": 254.96783625519672,
        "Satellite Name": "Starlink Shell 1 1139",
        "Satellite Number": 1139,
        "Semi-Major Axis(m)": 6931778.249405717,
        "Time(s)": 620
    },
    {
        "Altitude(m)": 563555.2785088734,
        "Argument of Periapsis(deg)": 0.02196044420920792,
        "Eccentricity": 0.0,
        "Inclination(deg)": 53.0,
        "Latitude(deg)": -32.72260048253029,
        "Longitude(deg)": 123.57932393524005,
        "Mean Anomaly(deg)": -42.32783417592697,
        "RAAN(deg)": 254.96731748511922,
        "Satellite Name": "Starlink Shell 1 1139",
        "Satellite Number": 1139,
        "Semi-Major Axis(m)": 6931778.249405717,
        "Time(s)": 630
    },
    {
        "Altitude(m)": 563380.1731806693,
        "Argument of Periapsis(deg)": 0.02230902268871916,
        "Eccentricity": 0.0,
        "Inclination(deg)": 53.0,
        "Latitude(deg)": -32.28196385276487,
        "Longitude(deg)": 124.06544772755527,
        "Mean Anomaly(deg)": -41.70100297237029,
        "RAAN(deg)": 254.96679871504173,
        "Satellite Name": "Starlink Shell 1 1139",
        "Satellite Number": 1139,
        "Semi-Major Axis(m)": 6931778.249405717,
        "Time(s)": 640
    },
    {
        "Altitude(m)": 563204.8951328913,
        "Argument of Periapsis(deg)": 0.022657601168230398,
        "Eccentricity": 0.0,
        "Inclination(deg)": 53.0,
        "Latitude(deg)": -31.839102245954745,
        "Longitude(deg)": 124.54650274969089,
        "Mean Anomaly(deg)": -41.074171768813464,
        "RAAN(deg)": 254.96627994496433,
        "Satellite Name": "Starlink Shell 1 1139",
        "Satellite Number": 1139,
        "Semi-Major Axis(m)": 6931778.249405717,
        "Time(s)": 650
    },
    {
        "Altitude(m)": 563029.510657874,
        "Argument of Periapsis(deg)": 0.023006179647741636,
        "Eccentricity": 0.0,
        "Inclination(deg)": 53.0,
        "Latitude(deg)": -31.39407280863071,
        "Longitude(deg)": 125.02259874714017,
        "Mean Anomaly(deg)": -40.44734056525677,
        "RAAN(deg)": 254.96576117488684,
        "Satellite Name": "Starlink Shell 1 1139",
        "Satellite Number": 1139,
        "Semi-Major Axis(m)": 6931778.249405717,
        "Time(s)": 660
    },
    {
        "Altitude(m)": 562854.0859496663,
        "Argument of Periapsis(deg)": 0.023354758127252868,
        "Eccentricity": 0.0,
        "Inclination(deg)": 53.0,
        "Latitude(deg)": -30.946931407238054,
        "Longitude(deg)": 125.49384479710905,
        "Mean Anomaly(deg)": -39.820509361700104,
        "RAAN(deg)": 254.96524240480932,
        "Satellite Name": "Starlink Shell 1 1139",
        "Satellite Number": 1139,
        "Semi-Major Axis(m)": 6931778.249405717,
        "Time(s)": 670
    },
    {
        "Altitude(m)": 562678.6870743781,
        "Argument of Periapsis(deg)": 0.023703336606764106,
        "Eccentricity": 0.0,
        "Inclination(deg)": 53.0,
        "Latitude(deg)": -30.49773266032979,
        "Longitude(deg)": 125.960348268526,
        "Mean Anomaly(deg)": -39.193678158143385,
        "RAAN(deg)": 254.96472363473188,
        "Satellite Name": "Starlink Shell 1 1139",
        "Satellite Number": 1139,
        "Semi-Major Axis(m)": 6931778.249405717,
        "Time(s)": 680
    },
    {
        "Altitude(m)": 562503.3799405772,
        "Argument of Periapsis(deg)": 0.024051915086275345,
        "Eccentricity": 0.0,
        "Inclination(deg)": 53.0,
        "Latitude(deg)": -30.046529970561547,
        "Longitude(deg)": 126.42221530001832,
        "Mean Anomaly(deg)": -38.56684695458671,
        "RAAN(deg)": 254.96420486465442,
        "Satellite Name": "Starlink Shell 1 1139",
        "Satellite Number": 1139,
        "Semi-Major Axis(m)": 6931778.249405717,
        "Time(s)": 690
    },
    {
        "Altitude(m)": 562328.230269773,
        "Argument of Periapsis(deg)": 0.024400493565786583,
        "Eccentricity": 0.0,
        "Inclination(deg)": 53.0,
        "Latitude(deg)": -29.593375556436282,
        "Longitude(deg)": 126.87955128262487,
        "Mean Anomaly(deg)": -37.94001575102994,
        "RAAN(deg)": 254.96368609457693,
        "Satellite Name": "Starlink Shell 1 1139",
        "Satellite Number": 1139,
        "Semi-Major Axis(m)": 6931778.249405717,
        "Time(s)": 700
    },
    {
        "Altitude(m)": 562153.3035669259,
        "Argument of Periapsis(deg)": 0.024749072045297815,
        "Eccentricity": 0.0,
        "Inclination(deg)": 53.0,
        "Latitude(deg)": -29.138320483753734,
        "Longitude(deg)": 127.33245983403056,
        "Mean Anomaly(deg)": -37.31318454747329,
        "RAAN(deg)": 254.96316732449947,
        "Satellite Name": "Starlink Shell 1 1139",
        "Satellite Number": 1139,
        "Semi-Major Axis(m)": 6931778.249405717,
        "Time(s)": 710
    },
    {
        "Altitude(m)": 561978.6650911055,
        "Argument of Periapsis(deg)": 0.025097650524809053,
        "Eccentricity": 0.0,
        "Inclination(deg)": 53.0,
        "Latitude(deg)": -28.681414696725476,
        "Longitude(deg)": 127.78104328974847,
        "Mean Anomaly(deg)": -36.68635334391642,
        "RAAN(deg)": 254.96264855442197,
        "Satellite Name": "Starlink Shell 1 1139",
        "Satellite Number": 1139,
        "Semi-Major Axis(m)": 6931778.249405717,
        "Time(s)": 720
    },
    {
        "Altitude(m)": 561804.3798262046,
        "Argument of Periapsis(deg)": 0.02544622900432029,
        "Eccentricity": 0.0,
        "Inclination(deg)": 53.0,
        "Latitude(deg)": -28.22270704872315,
        "Longitude(deg)": 128.22540319806888,
        "Mean Anomaly(deg)": -36.059522140359746,
        "RAAN(deg)": 254.96212978434448,
        "Satellite Name": "Starlink Shell 1 1139",
        "Satellite Number": 1139,
        "Semi-Major Axis(m)": 6931778.249405717,
        "Time(s)": 730
    },
    {
        "Altitude(m)": 561630.5124518021,
        "Argument of Periapsis(deg)": 0.02579480748383153,
        "Eccentricity": 0.0,
        "Inclination(deg)": 53.0,
        "Latitude(deg)": -27.762245332623838,
        "Longitude(deg)": 128.66563930562245,
        "Mean Anomaly(deg)": -35.43269093680313,
        "RAAN(deg)": 254.96161101426705,
        "Satellite Name": "Starlink Shell 1 1139",
        "Satellite Number": 1139,
        "Semi-Major Axis(m)": 6931778.249405717,
        "Time(s)": 740
    },
    {
        "Altitude(m)": 561457.1273141608,
        "Argument of Periapsis(deg)": 0.026143385963342765,
        "Eccentricity": 0.0,
        "Inclination(deg)": 53.0,
        "Latitude(deg)": -27.30007631073333,
        "Longitude(deg)": 129.1018500590264,
        "Mean Anomaly(deg)": -34.80585973324636,
        "RAAN(deg)": 254.96109224418956,
        "Satellite Name": "Starlink Shell 1 1139",
        "Satellite Number": 1139,
        "Semi-Major Axis(m)": 6931778.249405717,
        "Time(s)": 750
    }
]